NORAD_CAT_ID,OBJECT_NAME,OBJECT_TYPE,EPOCH,MEAN_MOTION,ECCENTRICITY,INCLINATION,RA_OF_ASC_NODE,ARG_OF_PERICENTER,MEAN_ANOMALY,BSTAR,MEAN_MOTION_DOT,MEAN_MOTION_DDOT,TLE_LINE0,TLE_LINE1,TLE_LINE2,SEMIMAJOR_AXIS,PERIOD,APOGEE,PERIGEE,DECAYED
53409.0,STARLINK-4490,PAYLOAD,2022-08-26 22:00:00,15.73230525,0.0001322,53.2207,165.2914,83.4741,4.2201,5.0619e-06,9.1e-07,0.0,0 STARLINK-4490,1 53409U 22097X   22238.91667824  .00000091  00000-0  50619-5 0  9997,2 53409  53.2207 165.2914 0001322  83.4741   4.2201 15.73230525  1301,6727.808000000001,91.531,350.56300000000016,348.784,0.0
53409.0,STARLINK-4490,PAYLOAD,2022-08-27 14:00:01,15.73271298,0.0001134,53.2194,161.9922,83.552,182.0926,-0.0007367999999999,-0.00103078,0.0,0 STARLINK-4490,1 53409U 22097X   22239.58334491 -.00103078  00000-0 -73680-3 0  9994,2 53409  53.2194 161.9922 0001134  83.5520 182.0926 15.73271298  1306,6727.691999999999,91.529,350.32,348.7940000000001,0.0
53409.0,STARLINK-4490,PAYLOAD,2022-08-27 22:00:00,15.73204402,0.0001220999999999,53.2195,160.3432,82.9309,271.6922,-0.0002457,-0.00034965,0.0,0 STARLINK-4490,1 53409U 22097X   22239.91667824 -.00034965  00000-0 -24570-3 0  9992,2 53409  53.2195 160.3432 0001221  82.9309 271.6922 15.73204402  1305,6727.8830000000025,91.533,350.569,348.926,0.0
53409.0,STARLINK-4490,PAYLOAD,2022-08-28 06:00:00,15.73166429,0.0001289,53.2191,158.6953,72.9581,10.5872,0.00062116,0.0008734,0.0,0 STARLINK-4490,1 53409U 22097X   22240.25001157  .00087340  00000-0  62116-3 0  9993,2 53409  53.2191 158.6953 0001289  72.9581  10.5872 15.73166429  3272,6727.991,91.535,350.723,348.98900000000015,0.0
53409.0,STARLINK-4490,PAYLOAD,2022-08-28 14:00:01,15.73278008,0.000126,53.2187,157.0415,87.2622,85.2049,-0.0012724,-0.00176091,0.0,0 STARLINK-4490,1 53409U 22097X   22240.58334491 -.00176091  00000-0 -12724-2 0  9992,2 53409  53.2187 157.0415 0001260  87.2622  85.2049 15.73278008  3325,6727.6730000000025,91.529,350.385,348.69,0.0
53409.0,STARLINK-4490,PAYLOAD,2022-08-28 22:00:00,15.73184889,0.0001065999999999,53.2191,155.3956,82.4785,178.9209,-0.00011988,-0.00017397,0.0,0 STARLINK-4490,1 53409U 22097X   22240.91667824 -.00017397  00000-0 -11988-3 0  9993,2 53409  53.2191 155.3956 0001066  82.4785 178.9209 15.73184889  3378,6727.938,91.534,350.52,349.086,0.0
53409.0,STARLINK-4490,PAYLOAD,2022-08-29 14:00:01,15.73220377,0.0001024,53.2192,152.0959,85.5365,353.7029,-0.00013549,-0.00019606,0.0,0 STARLINK-4490,1 53409U 22097X   22241.58334491 -.00019606  00000-0 -13549-3 0  9998,2 53409  53.2192 152.0959 0001024  85.5365 353.7029 15.73220377  1305,6727.837,91.532,350.391,349.01300000000015,0.0
53409.0,STARLINK-4490,PAYLOAD,2022-08-29 16:00:00,15.73217603,0.0001105999999999,53.219,151.6832,86.2921,105.1838,-0.00015451,-0.00022262,0.0,0 STARLINK-4490,1 53409U 22097X   22241.66667824 -.00022262  00000-0 -15451-3 0  9992,2 53409  53.2190 151.6832 0001106  86.2921 105.1838 15.73217603  3492,6727.845,91.532,350.454,348.966,0.0
53409.0,STARLINK-4490,PAYLOAD,2022-08-29 22:00:00,15.73196409,0.0001242999999999,53.2193,150.4474,81.5754,86.6115,4.295e-05,5.411e-05,0.0,0 STARLINK-4490,1 53409U 22097X   22241.91667824  .00005411  00000-0  42950-4 0  9990,2 53409  53.2193 150.4474 0001243  81.5754  86.6115 15.73196409  1307,6727.905,91.533,350.607,348.934,0.0
53409.0,STARLINK-4490,PAYLOAD,2022-08-30 14:00:01,15.73190017,0.0001063,53.2187,147.1476,85.9232,260.1477,-0.00026236,-0.0003726,0.0,0 STARLINK-4490,1 53409U 22097X   22242.58334491 -.00037260  00000-0 -26236-3 0  9992,2 53409  53.2187 147.1476 0001063  85.9232 260.1477 15.73190017  3631,6727.924,91.534,350.504,349.0730000000001,0.0
53409.0,STARLINK-4490,PAYLOAD,2022-08-30 22:00:00,15.73158473,0.0001213,53.2186,145.4996,82.962,352.0097,-0.00010718,-0.00015606,0.0,0 STARLINK-4490,1 53409U 22097X   22242.91667824 -.00015606  00000-0 -10718-3 0  9996,2 53409  53.2186 145.4996 0001213  82.9620 352.0097 15.73158473  1304,6728.014,91.536,350.695,349.06199999999984,0.0
53409.0,STARLINK-4490,PAYLOAD,2022-08-31 14:00:01,15.73185295,0.0001010999999999,53.2185,142.1995,89.1613,163.5752,1.301e-05,1.206e-05,0.0,0 STARLINK-4490,1 53409U 22097X   22243.58334491  .00001206  00000-0  13010-4 0  9999,2 53409  53.2185 142.1995 0001011  89.1613 163.5752 15.73185295  1308,6727.937,91.534,350.482,349.122,0.0
53409.0,STARLINK-4490,PAYLOAD,2022-08-31 20:00:01,15.73181215,0.000101,53.2188,140.9632,85.8064,143.609,-0.00014538,-0.00020954,0.0,0 STARLINK-4490,1 53409U 22097X   22243.83334491 -.00020954  00000-0 -14538-3 0  9995,2 53409  53.2188 140.9632 0001010  85.8064 143.6090 15.73181215  3839,6727.949000000001,91.534,350.49300000000005,349.134,0.0
53409.0,STARLINK-4490,PAYLOAD,2022-08-31 22:00:00,15.73176182,9.66e-05,53.2187,140.5514,80.1422,261.4979,-8.982e-05,-0.00013192,0.0,0 STARLINK-4490,1 53409U 22097X   22243.91667824 -.00013192  00000-0 -89820-4 0  9996,2 53409  53.2187 140.5514 0000966  80.1422 261.4979 15.73176182  1300,6727.9630000000025,91.535,350.478,349.17800000000005,0.0
53409.0,STARLINK-4490,PAYLOAD,2022-09-01 14:00:01,15.73181068,8.379999999999999e-05,53.2182,137.2513,86.9954,72.5263,0.0005682,0.00079818,0.0,0 STARLINK-4490,1 53409U 22097X   22244.58335648  .00079818  00000-0  56820-3 0  9994,2 53409  53.2182 137.2513 0000838  86.9954  72.5263 15.73181068  1305,6727.949000000001,91.534,350.37800000000016,349.25,0.0
53409.0,STARLINK-4490,PAYLOAD,2022-09-01 22:00:00,15.73254396,9.55e-05,53.2182,135.6036,78.4222,169.97,-0.00020881,-0.00029888,0.0,0 STARLINK-4490,1 53409U 22097X   22244.91667824 -.00029888  00000-0 -20881-3 0  9997,2 53409  53.2182 135.6036 0000955  78.4222 169.9700 15.73254396  1303,6727.74,91.53,350.24800000000016,348.963,0.0
53409.0,STARLINK-4490,PAYLOAD,2022-09-02 06:00:00,15.73222044,0.0001049,53.2179,133.9543,73.0703,264.3086,1.0983e-06,-4.65e-06,0.0,0 STARLINK-4490,1 53409U 22097X   22245.25001157 -.00000465  00000-0  10983-5 0  9999,2 53409  53.2179 133.9543 0001049  73.0703 264.3086 15.73222044  4050,6727.831999999999,91.532,350.403,348.992,0.0
53409.0,STARLINK-4490,PAYLOAD,2022-09-02 14:00:01,15.73217346,0.0001146,53.2182,132.3028,88.1323,338.1994,-0.00018229,-0.00026142,0.0,0 STARLINK-4490,1 53409U 22097X   22245.58334491 -.00026142  00000-0 -18229-3 0  9995,2 53409  53.2182 132.3028 0001146  88.1323 338.1994 15.73217346  1300,6727.846,91.532,350.482,348.94,0.0
53409.0,STARLINK-4490,PAYLOAD,2022-09-02 22:00:01,15.73191763,0.0001356,53.2184,130.6549,80.512,74.8265,4.2047e-05,5.283e-05,0.0,0 STARLINK-4490,1 53409U 22097X   22245.91668981  .00005283  00000-0  42047-4 0  9993,2 53409  53.2184 130.6549 0001356  80.5120  74.8265 15.73191763  1304,6727.919,91.534,350.696,348.871,0.0
53409.0,STARLINK-4490,PAYLOAD,2022-09-03 00:00:00,15.7318949,0.0001395999999999,53.2185,130.2431,78.2323,189.2762,0.00024746,0.00034235,0.0,0 STARLINK-4490,1 53409U 22097X   22246.00001157  .00034235  00000-0  24746-3 0  9994,2 53409  53.2185 130.2431 0001396  78.2323 189.2762 15.73189490  4179,6727.925,91.534,350.72900000000016,348.851,0.0
53409.0,STARLINK-4490,PAYLOAD,2022-09-03 14:00:01,15.73251642,0.0001121,53.2184,127.3544,89.3658,243.807,-0.00013326,-0.0001932,0.0,0 STARLINK-4490,1 53409U 22097X   22246.58334491 -.00019320  00000-0 -13326-3 0  9999,2 53409  53.2184 127.3544 0001121  89.3658 243.8070 15.73251642  1300,6727.748000000001,91.53,350.367,348.8590000000001,0.0
53409.0,STARLINK-4490,PAYLOAD,2022-09-03 22:00:00,15.73264162,0.0001131,53.2182,125.7069,78.4324,343.7186,-0.00075883,-0.00106072,0.0,0 STARLINK-4490,1 53409U 22097X   22246.91667824 -.00106072  00000-0 -75883-3 0  9992,2 53409  53.2182 125.7069 0001131  78.4324 343.7186 15.73264162  1301,6727.712,91.529,350.338,348.816,0.0
53409.0,STARLINK-4490,PAYLOAD,2022-09-04 06:00:00,15.73198043,0.0001209,53.2181,124.0574,78.1967,72.8992,0.00014088,0.00019195,0.0,0 STARLINK-4490,1 53409U 22097X   22247.25001157  .00019195  00000-0  14088-3 0  9998,2 53409  53.2181 124.0574 0001209  78.1967  72.8992 15.73198043  4378,6727.901,91.533,350.579,348.952,0.0
53409.0,STARLINK-4490,PAYLOAD,2022-09-04 14:00:01,15.73207428,0.0001127999999999,53.2185,122.4061,91.1085,148.9937,0.00050071,0.00070263,0.0,0 STARLINK-4490,1 53409U 22097X   22247.58335648  .00070263  00000-0  50071-3 0  9994,2 53409  53.2185 122.4061 0001128  91.1085 148.9937 15.73207428  1303,6727.874,91.533,350.49800000000016,348.98,0.0
53409.0,STARLINK-4490,PAYLOAD,2022-09-04 20:00:01,15.73285489,0.0001149999999999,53.2189,121.1705,84.2572,132.4941,-0.00087621,-0.00122262,0.0,0 STARLINK-4490,1 53409U 22097X   22247.83334491 -.00122262  00000-0 -87621-3 0  9997,2 53409  53.2189 121.1705 0001150  84.2572 132.4941 15.73285489  1303,6727.651,91.528,350.29,348.74300000000005,0.0
53409.0,STARLINK-4490,PAYLOAD,2022-09-05 04:00:00,15.73229015,0.0001109,53.2187,119.5218,72.2656,233.5353,-1.9506e-05,-3.3600000000000004e-05,0.0,0 STARLINK-4490,1 53409U 22097X   22248.16667824 -.00003360  00000-0 -19506-4 0  9998,2 53409  53.2187 119.5218 0001109  72.2656 233.5353 15.73229015  4514,6727.812,91.531,350.4240000000001,348.931,0.0
53409.0,STARLINK-4490,PAYLOAD,2022-09-05 14:00:01,15.73205189,0.0001161,53.2187,117.458,90.7979,56.2042,-0.00010512,-0.00015349,0.0,0 STARLINK-4490,1 53409U 22097X   22248.58334491 -.00015349  00000-0 -10512-3 0  9992,2 53409  53.2187 117.4580 0001161  90.7979  56.2042 15.73205189  1309,6727.88,91.533,350.526,348.964,0.0
53409.0,STARLINK-4490,PAYLOAD,2022-09-05 20:00:01,15.73207586,9.66e-05,53.2186,116.2225,82.0734,41.6285,-0.00059452,-0.00083259,0.0,0 STARLINK-4490,1 53409U 22097X   22248.83334491 -.00083259  00000-0 -59452-3 0  9991,2 53409  53.2186 116.2225 0000966  82.0734  41.6285 15.73207586  4624,6727.874,91.533,350.38800000000015,349.089,0.0
53409.0,STARLINK-4490,PAYLOAD,2022-09-05 22:00:00,15.73184029,9.85e-05,53.2187,115.8109,75.0742,160.8606,-0.00037424,-0.00052775,0.0,0 STARLINK-4490,1 53409U 22097X   22248.91667824 -.00052775  00000-0 -37424-3 0  9993,2 53409  53.2187 115.8109 0000985  75.0742 160.8606 15.73184029  1302,6727.941,91.534,350.468,349.14300000000014,0.0
